[{"OBJECT_NAME":"SHIYAN-24C 03","OBJECT_ID":"2023-206C","EPOCH":"2026-03-09T21:23:43.281888","MEAN_MOTION":14.97896938,"ECCENTRICITY":0.0002411,"INCLINATION":97.3969,"RA_OF_ASC_NODE":41.7507,"ARG_OF_PERICENTER":66.6237,"MEAN_ANOMALY":293.524,"EPHEMERIS_TYPE":0,"CLASSIFICATION_TYPE":"U","NORAD_CAT_ID":58652,"ELEMENT_SET_NO":999,"REV_AT_EPOCH":12043,"BSTAR":0.00011928,"MEAN_MOTION_DOT":1.35e-5,"MEAN_MOTION_DDOT":0},{"OBJECT_NAME":"EXPLORER 11","OBJECT_ID":"1961-013A","EPOCH":"2026-03-09T10:05:52.450080","MEAN_MOTION":14.21739623,"ECCENTRICITY":0.04946829,"INCLINATION":28.7774,"RA_OF_ASC_NODE":171.5314,"ARG_OF_PERICENTER":276.7085,"MEAN_ANOMALY":77.745,"EPHEMERIS_TYPE":0,"CLASSIFICATION_TYPE":"U","NORAD_CAT_ID":107,"ELEMENT_SET_NO":999,"REV_AT_EPOCH":26228,"BSTAR":0.00050011847,"MEAN_MOTION_DOT":4.224e-5,"MEAN_MOTION_DDOT":0}]
